{
  "schema": "int-telemetry-real-tle-snapshot/v1",
  "source": "celestrak",
  "group": "IRIDIUM-NEXT",
  "format": "celestrak-gp-json",
  "source_url": "https://celestrak.org/NORAD/elements/gp.php?GROUP=IRIDIUM-NEXT&FORMAT=JSON",
  "downloaded_at": "2026-07-07T06:33:54.787Z",
  "generated_at": "2026-07-07T06:33:56.153Z",
  "fingerprint": "75f53801",
  "shell_id": "iridium-next-real-86.4deg-785km",
  "catalog_count": 80,
  "shell_count": 67,
  "selected_count": 66,
  "mean_altitude_km": 784.8,
  "mean_inclination_deg": 86.3965,
  "mean_mean_motion_rev_per_day": 14.34218389,
  "layout": {
    "planes": 6,
    "satellites_per_plane": 11,
    "selection_strategy": "target-shell-raan-clusters-even-slot-sampling",
    "raan_cluster_threshold_deg": 6,
    "target_inclination_deg": 86.4,
    "target_altitude_km": 781,
    "selected_shell_key": "86.5deg-800km",
    "target_shell_distance": 4.16
  },
  "satellites": [
    {
      "satellite_id": "P04-S10",
      "norad_id": 43254,
      "satellite_name": "IRIDIUM 146",
      "cospar_id": "2018-030F",
      "shell_id": "iridium-next-real-86.4deg-785km",
      "plane_id": 3,
      "slot_id": 9,
      "epoch": "2026-07-06T18:40:59.268000",
      "inclination": 86.3962,
      "raan": 282.22620000000006,
      "eccentricity": 0.0002329,
      "argument_of_perigee": 98.02319999999997,
      "mean_anomaly": 262.1229000000001,
      "mean_motion": 14.34218735,
      "bstar": 0.000026666,
      "status": "active",
      "raw_omm": {
        "OBJECT_NAME": "IRIDIUM 146",
        "OBJECT_ID": "2018-030F",
        "EPOCH": "2026-07-06T18:40:59.268000",
        "MEAN_MOTION": 14.34218735,
        "ECCENTRICITY": 0.0002329,
        "INCLINATION": 86.3962,
        "RA_OF_ASC_NODE": 282.2262,
        "ARG_OF_PERICENTER": 98.0232,
        "MEAN_ANOMALY": 262.1229,
        "EPHEMERIS_TYPE": 0,
        "CLASSIFICATION_TYPE": "U",
        "NORAD_CAT_ID": 43254,
        "ELEMENT_SET_NO": 999,
        "REV_AT_EPOCH": 43294,
        "BSTAR": 0.000026666,
        "MEAN_MOTION_DOT": 9.4e-7,
        "MEAN_MOTION_DDOT": 0
      },
      "source": "celestrak",
      "source_url": "https://celestrak.org/NORAD/elements/gp.php?GROUP=IRIDIUM-NEXT&FORMAT=JSON",
      "catalog_fingerprint": "75f53801"
    },
    {
      "satellite_id": "P04-S11",
      "norad_id": 43250,
      "satellite_name": "IRIDIUM 149",
      "cospar_id": "2018-030B",
      "shell_id": "iridium-next-real-86.4deg-785km",
      "plane_id": 3,
      "slot_id": 10,
      "epoch": "2026-07-06T16:51:23.287968",
      "inclination": 86.3961,
      "raan": 282.2075,
      "eccentricity": 0.0002265,
      "argument_of_perigee": 93.56880000000001,
      "mean_anomaly": 266.5767000000001,
      "mean_motion": 14.34218704,
      "bstar": 0.000031397,
      "status": "active",
      "raw_omm": {
        "OBJECT_NAME": "IRIDIUM 149",
        "OBJECT_ID": "2018-030B",
        "EPOCH": "2026-07-06T16:51:23.287968",
        "MEAN_MOTION": 14.34218704,
        "ECCENTRICITY": 0.0002265,
        "INCLINATION": 86.3961,
        "RA_OF_ASC_NODE": 282.2075,
        "ARG_OF_PERICENTER": 93.5688,
        "MEAN_ANOMALY": 266.5767,
        "EPHEMERIS_TYPE": 0,
        "CLASSIFICATION_TYPE": "U",
        "NORAD_CAT_ID": 43250,
        "ELEMENT_SET_NO": 999,
        "REV_AT_EPOCH": 43295,
        "BSTAR": 0.000031397,
        "MEAN_MOTION_DOT": 0.00000108,
        "MEAN_MOTION_DDOT": 0
      },
      "source": "celestrak",
      "source_url": "https://celestrak.org/NORAD/elements/gp.php?GROUP=IRIDIUM-NEXT&FORMAT=JSON",
      "catalog_fingerprint": "75f53801"
    },
    {
      "satellite_id": "P05-S01",
      "norad_id": 42805,
      "satellite_name": "IRIDIUM 120",
      "cospar_id": "2017-039C",
      "shell_id": "iridium-next-real-86.4deg-785km",
      "plane_id": 4,
      "slot_id": 0,
      "epoch": "2026-07-06T20:08:07.046016",
      "inclination": 86.3976,
      "raan": 313.7442,
      "eccentricity": 0.0002263,
      "argument_of_perigee": 99.07709999999997,
      "mean_anomaly": 261.06809999999996,
      "mean_motion": 14.34217593,
      "bstar": 0.000011007,
      "status": "active",
      "raw_omm": {
        "OBJECT_NAME": "IRIDIUM 120",
        "OBJECT_ID": "2017-039C",
        "EPOCH": "2026-07-06T20:08:07.046016",
        "MEAN_MOTION": 14.34217593,
        "ECCENTRICITY": 0.0002263,
        "INCLINATION": 86.3976,
        "RA_OF_ASC_NODE": 313.7442,
        "ARG_OF_PERICENTER": 99.0771,
        "MEAN_ANOMALY": 261.0681,
        "EPHEMERIS_TYPE": 0,
        "CLASSIFICATION_TYPE": "U",
        "NORAD_CAT_ID": 42805,
        "ELEMENT_SET_NO": 999,
        "REV_AT_EPOCH": 47399,
        "BSTAR": 0.000011007,
        "MEAN_MOTION_DOT": 5.1e-7,
        "MEAN_MOTION_DDOT": 0
      },
      "source": "celestrak",
      "source_url": "https://celestrak.org/NORAD/elements/gp.php?GROUP=IRIDIUM-NEXT&FORMAT=JSON",
      "catalog_fingerprint": "75f53801"
    },
    {
      "satellite_id": "P05-S02",
      "norad_id": 43074,
      "satellite_name": "IRIDIUM 151",
      "cospar_id": "2017-083E",
      "shell_id": "iridium-next-real-86.4deg-785km",
      "plane_id": 4,
      "slot_id": 1,
      "epoch": "2026-07-06T09:56:11.058432",
      "inclination": 86.3984,
      "raan": 314.0214000000001,
      "eccentricity": 0.0002217,
      "argument_of_perigee": 94.16460000000001,
      "mean_anomaly": 265.98029999999994,
      "mean_motion": 14.34218609,
      "bstar": 0.000031413,
      "status": "active",
      "raw_omm": {
        "OBJECT_NAME": "IRIDIUM 151",
        "OBJECT_ID": "2017-083E",
        "EPOCH": "2026-07-06T09:56:11.058432",
        "MEAN_MOTION": 14.34218609,
        "ECCENTRICITY": 0.0002217,
        "INCLINATION": 86.3984,
        "RA_OF_ASC_NODE": 314.0214,
        "ARG_OF_PERICENTER": 94.1646,
        "MEAN_ANOMALY": 265.9803,
        "EPHEMERIS_TYPE": 0,
        "CLASSIFICATION_TYPE": "U",
        "NORAD_CAT_ID": 43074,
        "ELEMENT_SET_NO": 999,
        "REV_AT_EPOCH": 44689,
        "BSTAR": 0.000031413,
        "MEAN_MOTION_DOT": 0.00000108,
        "MEAN_MOTION_DDOT": 0
      },
      "source": "celestrak",
      "source_url": "https://celestrak.org/NORAD/elements/gp.php?GROUP=IRIDIUM-NEXT&FORMAT=JSON",
      "catalog_fingerprint": "75f53801"
    },
    {
      "satellite_id": "P05-S03",
      "norad_id": 43070,
      "satellite_name": "IRIDIUM 135",
      "cospar_id": "2017-083A",
      "shell_id": "iridium-next-real-86.4deg-785km",
      "plane_id": 4,
      "slot_id": 2,
      "epoch": "2026-07-06T09:47:03.139008",
      "inclination": 86.3982,
      "raan": 313.98019999999997,
      "eccentricity": 0.0002184,
      "argument_of_perigee": 93.22910000000002,
      "mean_anomaly": 266.91550000000007,
      "mean_motion": 14.34218109,
      "bstar": 0.000014754,
      "status": "active",
      "raw_omm": {
        "OBJECT_NAME": "IRIDIUM 135",
        "OBJECT_ID": "2017-083A",
        "EPOCH": "2026-07-06T09:47:03.139008",
        "MEAN_MOTION": 14.34218109,
        "ECCENTRICITY": 0.0002184,
        "INCLINATION": 86.3982,
        "RA_OF_ASC_NODE": 313.9802,
        "ARG_OF_PERICENTER": 93.2291,
        "MEAN_ANOMALY": 266.9155,
        "EPHEMERIS_TYPE": 0,
        "CLASSIFICATION_TYPE": "U",
        "NORAD_CAT_ID": 43070,
        "ELEMENT_SET_NO": 999,
        "REV_AT_EPOCH": 44690,
        "BSTAR": 0.000014754,
        "MEAN_MOTION_DOT": 6.1e-7,
        "MEAN_MOTION_DDOT": 0
      },
      "source": "celestrak",
      "source_url": "https://celestrak.org/NORAD/elements/gp.php?GROUP=IRIDIUM-NEXT&FORMAT=JSON",
      "catalog_fingerprint": "75f53801"
    },
    {
      "satellite_id": "P05-S04",
      "norad_id": 43072,
      "satellite_name": "IRIDIUM 116",
      "cospar_id": "2017-083C",
      "shell_id": "iridium-next-real-86.4deg-785km",
      "plane_id": 4,
      "slot_id": 3,
      "epoch": "2026-07-06T09:37:55.096032",
      "inclination": 86.398,
      "raan": 313.9683,
      "eccentricity": 0.0002322,
      "argument_of_perigee": 100.6789,
      "mean_anomaly": 259.4667999999999,
      "mean_motion": 14.34218745,
      "bstar": 0.00011538,
      "status": "active",
      "raw_omm": {
        "OBJECT_NAME": "IRIDIUM 116",
        "OBJECT_ID": "2017-083C",
        "EPOCH": "2026-07-06T09:37:55.096032",
        "MEAN_MOTION": 14.34218745,
        "ECCENTRICITY": 0.0002322,
        "INCLINATION": 86.398,
        "RA_OF_ASC_NODE": 313.9683,
        "ARG_OF_PERICENTER": 100.6789,
        "MEAN_ANOMALY": 259.4668,
        "EPHEMERIS_TYPE": 0,
        "CLASSIFICATION_TYPE": "U",
        "NORAD_CAT_ID": 43072,
        "ELEMENT_SET_NO": 999,
        "REV_AT_EPOCH": 44692,
        "BSTAR": 0.00011538,
        "MEAN_MOTION_DOT": 0.00000343,
        "MEAN_MOTION_DDOT": 0
      },
      "source": "celestrak",
      "source_url": "https://celestrak.org/NORAD/elements/gp.php?GROUP=IRIDIUM-NEXT&FORMAT=JSON",
      "catalog_fingerprint": "75f53801"
    }
  ]
}